NORAD_CAT_ID,OBJECT_NAME,OBJECT_TYPE,EPOCH,MEAN_MOTION,ECCENTRICITY,INCLINATION,RA_OF_ASC_NODE,ARG_OF_PERICENTER,MEAN_ANOMALY,BSTAR,MEAN_MOTION_DOT,MEAN_MOTION_DDOT,TLE_LINE0,TLE_LINE1,TLE_LINE2,SEMIMAJOR_AXIS,PERIOD,APOGEE,PERIGEE,DECAYED
49762.0,STARLINK-3195,PAYLOAD,2024-06-05 05:55:16,15.08832733,0.0001453,53.2167,143.1591,95.3635,264.7522,-3.9134e-05,-9.11e-06,0.0,0 STARLINK-3195,1 49762U 21115AQ  24157.24671532 -.00000911  00000-0 -39134-4 0  9994,2 49762  53.2167 143.1591 0001453  95.3635 264.7522 15.08832733139801,6917.903,95.438,540.773,538.762,0.0
49762.0,STARLINK-3195,PAYLOAD,2024-06-05 09:06:02,15.08830792,0.0001433,53.2167,142.5647,94.7271,265.3884,-5.8819e-05,-1.224e-05,0.0,0 STARLINK-3195,1 49762U 21115AQ  24157.37919758 -.00001224  00000-0 -58819-4 0  9992,2 49762  53.2167 142.5647 0001433  94.7271 265.3884 15.08830792138713,6917.909,95.438,540.765,538.782,0.0
49762.0,STARLINK-3195,PAYLOAD,2024-06-05 15:27:35,15.08832771,0.0001431,53.2169,141.3753,94.6785,265.437,-3.9803e-05,-9.21e-06,0.0,0 STARLINK-3195,1 49762U 21115AQ  24157.64415688 -.00000921  00000-0 -39803-4 0  9990,2 49762  53.2169 141.3753 0001431  94.6785 265.4370 15.08832771138751,6917.902,95.438,540.757,538.778,0.0
49762.0,STARLINK-3195,PAYLOAD,2024-06-06 05:46:02,15.08838932,0.0001347,53.2162,138.6994,94.076,266.0386,3.4778e-05,2.66e-06,0.0,0 STARLINK-3195,1 49762U 21115AQ  24158.24031240  .00000266  00000-0  34778-4 0  9991,2 49762  53.2162 138.6994 0001347  94.0760 266.0386 15.08838932139955,6917.884,95.438,540.68,538.817,0.0
49762.0,STARLINK-3195,PAYLOAD,2024-06-06 15:18:21,15.08838849,0.0001344,53.2166,136.915,92.2392,267.8754,3.781e-05,3.14e-06,0.0,0 STARLINK-3195,1 49762U 21115AQ  24158.63775308  .00000314  00000-0  37810-4 0  9998,2 49762  53.2166 136.9150 0001344  92.2392 267.8754 15.08838849138901,6917.884,95.438,540.679,538.819,0.0
49762.0,STARLINK-3195,PAYLOAD,2024-06-07 15:09:09,15.08836049,0.0001318,53.2164,132.4554,94.1724,265.9418,0.00011844,1.597e-05,0.0,0 STARLINK-3195,1 49762U 21115AQ  24159.63135620  .00001597  00000-0  11844-3 0  9998,2 49762  53.2164 132.4554 0001318  94.1724 265.9418 15.08836049140166,6917.892,95.438,540.669,538.846,0.0
49762.0,STARLINK-3195,PAYLOAD,2024-06-08 07:03:00,15.08844324,0.0001589,53.2184,129.4795,89.6697,270.4477,9.6394e-05,1.247e-05,0.0,0 STARLINK-3195,1 49762U 21115AQ  24160.29375353  .00001247  00000-0  96394-4 0  9997,2 49762  53.2184 129.4795 0001589  89.6697 270.4477 15.08844324139157,6917.867,95.437,540.831,538.633,0.0
49762.0,STARLINK-3195,PAYLOAD,2024-06-08 14:59:56,15.08836517,0.0001495,53.2169,127.9942,90.6855,269.4309,5.2982e-07,-2.8e-06,0.0,0 STARLINK-3195,1 49762U 21115AQ  24160.62496092 -.00000280  00000-0  52982-6 0  9992,2 49762  53.2169 127.9942 0001495  90.6855 269.4309 15.08836517139204,6917.891,95.438,540.79,538.722,0.0
49762.0,STARLINK-3195,PAYLOAD,2024-06-09 05:18:25,15.08835233,0.0001592,53.2177,125.3184,87.764,272.3534,8.5708e-07,-2.74e-06,0.0,0 STARLINK-3195,1 49762U 21115AQ  24161.22112467 -.00000274  00000-0  85708-6 0  9995,2 49762  53.2177 125.3184 0001592  87.7640 272.3534 15.08835233140401,6917.895,95.438,540.861,538.659,0.0
49762.0,STARLINK-3195,PAYLOAD,2024-06-09 14:50:43,15.08839021,0.0001636,53.218,123.5336,88.478,271.6399,3.0086e-05,1.91e-06,0.0,0 STARLINK-3195,1 49762U 21115AQ  24161.61856206  .00000191  00000-0  30086-4 0  9998,2 49762  53.2180 123.5336 0001636  88.4780 271.6399 15.08839021139358,6917.883,95.438,540.88,538.617,0.0
49762.0,STARLINK-3195,PAYLOAD,2024-06-10 03:33:48,15.08844569,0.0001258,53.216,121.1546,91.9539,268.1597,0.00010939,1.454e-05,0.0,0 STARLINK-3195,1 49762U 21115AQ  24162.14847480  .00001454  00000-0  10939-3 0  9998,2 49762  53.2160 121.1546 0001258  91.9539 268.1597 15.08844569140541,6917.866,95.437,540.602,538.861,0.0
49762.0,STARLINK-3195,PAYLOAD,2024-06-10 14:41:30,15.08844708,0.0001245,53.2165,119.0721,96.4148,263.6986,8.6358e-06,-1.5e-06,0.0,0 STARLINK-3195,1 49762U 21115AQ  24162.61215654 -.00000150  00000-0  86358-5 0  9995,2 49762  53.2165 119.0721 0001245  96.4148 263.6986 15.08844708139500,6917.866,95.437,540.592,538.87,0.0
49762.0,STARLINK-3195,PAYLOAD,2024-06-11 03:24:36,15.08816468,0.0001267,53.2164,116.6941,103.0203,257.0931,0.00033048,4.972e-05,0.0,0 STARLINK-3195,1 49762U 21115AQ  24163.14209006  .00004972  00000-0  33048-3 0  9999,2 49762  53.2164 116.6941 0001267 103.0203 257.0931 15.08816468140698,6917.952,95.439,540.694,538.941,0.0
49762.0,STARLINK-3195,PAYLOAD,2024-06-11 06:35:21,15.08841765,0.0001456,53.2172,116.0974,103.3469,256.7686,7.2091e-05,8.6e-06,0.0,0 STARLINK-3195,1 49762U 21115AQ  24163.27455876  .00000860  00000-0  72091-4 0  9995,2 49762  53.2172 116.0974 0001456 103.3469 256.7686 15.08841765139604,6917.875,95.437,540.747,538.733,0.0
49762.0,STARLINK-3195,PAYLOAD,2024-06-12 03:15:22,15.08851453,0.0001564,53.2177,112.2315,105.4181,254.6984,2.5696e-05,1.21e-06,0.0,0 STARLINK-3195,1 49762U 21115AQ  24164.13567223  .00000121  00000-0  25696-4 0  9990,2 49762  53.2177 112.2315 0001564 105.4181 254.6984 15.08851453140841,6917.845,95.437,540.792,538.628,0.0
49762.0,STARLINK-3195,PAYLOAD,2024-06-12 06:26:08,15.08855589,0.0001615,53.2177,111.6366,103.9792,256.138,-1.7495e-05,-5.67e-06,0.0,0 STARLINK-3195,1 49762U 21115AQ  24164.26815019 -.00000567  00000-0 -17495-4 0  9997,2 49762  53.2177 111.6366 0001615 103.9792 256.1380 15.08855589139757,6917.833,95.437,540.815,538.581,0.0
49762.0,STARLINK-3195,PAYLOAD,2024-06-13 03:06:10,15.08816203,0.0001528,53.2179,107.7702,109.397,250.7188,0.00022487,3.29e-05,0.0,0 STARLINK-3195,1 49762U 21115AQ  24165.12928597  .00003290  00000-0  22487-3 0  9999,2 49762  53.2179 107.7702 0001528 109.3970 250.7188 15.08816203140994,6917.953,95.439,540.875,538.761,0.0
49762.0,STARLINK-3195,PAYLOAD,2024-06-13 12:38:28,15.08836983,0.0001375,53.2176,105.9884,93.6035,266.5114,-2.5678e-05,-6.97e-06,0.0,0 STARLINK-3195,1 49762U 21115AQ  24165.52672354 -.00000697  00000-0 -25678-4 0  9996,2 49762  53.2176 105.9884 0001375  93.6035 266.5114 15.08836983141058,6917.89,95.438,540.706,538.803,0.0
49762.0,STARLINK-3195,PAYLOAD,2024-06-14 12:29:15,15.08842718,0.0001362,53.2172,101.5313,105.494,254.6203,-4.3471e-06,-3.57e-06,0.0,0 STARLINK-3195,1 49762U 21115AQ  24166.52031990 -.00000357  00000-0 -43471-5 0  9997,2 49762  53.2172 101.5313 0001362 105.4940 254.6203 15.08842718140099,6917.872,95.437,540.679,538.795,0.0
49762.0,STARLINK-3195,PAYLOAD,2024-06-14 20:26:11,15.08832921,0.0001449,53.2177,100.0453,101.4966,258.6189,6.3065e-05,7.16e-06,0.0,0 STARLINK-3195,1 49762U 21115AQ  24166.85152593  .00000716  00000-0  63065-4 0  9993,2 49762  53.2177 100.0453 0001449 101.4966 258.6189 15.08832921140141,6917.902,95.438,540.769,538.765,0.0
49762.0,STARLINK-3195,PAYLOAD,2024-06-15 12:20:03,15.08835631,0.0001279,53.2175,97.0702,92.3498,267.764,6.4955e-05,7.46e-06,0.0,0 STARLINK-3195,1 49762U 21115AQ  24167.51392607  .00000746  00000-0  64955-4 0  9991,2 49762  53.2175  97.0702 0001279  92.3498 267.7640 15.08835631140245,6917.894,95.438,540.644,538.874,0.0
49762.0,STARLINK-3195,PAYLOAD,2024-06-16 12:10:52,15.08818043,0.0001833,53.2183,92.6123,85.8604,274.2598,-0.00013816,-2.485e-05,0.0,0 STARLINK-3195,1 49762U 21115AQ  24168.50754876 -.00002485  00000-0 -13816-3 0  9994,2 49762  53.2183  92.6123 0001833  85.8604 274.2598 15.08818043140393,6917.948,95.439,541.081,538.544,0.0
49762.0,STARLINK-3195,PAYLOAD,2024-06-17 12:01:38,15.08836872,0.0001358,53.2187,88.1505,86.8048,273.3099,5.7232e-05,6.23e-06,0.0,0 STARLINK-3195,1 49762U 21115AQ  24169.50114003  .00000623  00000-0  57232-4 0  9998,2 49762  53.2187  88.1505 0001358  86.8048 273.3099 15.08836872140549,6917.89,95.438,540.694,538.816,0.0
49762.0,STARLINK-3195,PAYLOAD,2024-06-18 03:55:28,15.0885989,0.0001318,53.2175,85.1744,98.6891,261.425,0.00016005,2.262e-05,0.0,0 STARLINK-3195,1 49762U 21115AQ  24170.16352214  .00002262  00000-0  16005-3 0  9993,2 49762  53.2175  85.1744 0001318  98.6891 261.4250 15.08859890141757,6917.82,95.436,540.596,538.773,0.0
49762.0,STARLINK-3195,PAYLOAD,2024-06-18 11:52:24,15.08852173,0.0001431,53.2168,83.6858,102.4284,257.6868,8.4281e-05,1.054e-05,0.0,0 STARLINK-3195,1 49762U 21115AQ  24170.49472675  .00001054  00000-0  84281-4 0  9993,2 49762  53.2168  83.6858 0001431 102.4284 257.6868 15.08852173141809,6917.843,95.437,540.698,538.718,0.0
49762.0,STARLINK-3195,PAYLOAD,2024-06-18 21:24:43,15.0883528,0.0001768,53.2172,81.9011,97.1721,262.9472,0.00027402,4.075e-05,0.0,0 STARLINK-3195,1 49762U 21115AQ  24170.89217526  .00004075  00000-0  27402-3 0  9996,2 49762  53.2172  81.9011 0001768  97.1721 262.9472 15.08835280140758,6917.895,95.438,540.983,538.537,0.0
49762.0,STARLINK-3195,PAYLOAD,2024-06-19 00:35:30,15.08842989,0.0001567,53.2178,81.3068,100.962,259.1548,0.00013904,1.926e-05,0.0,0 STARLINK-3195,1 49762U 21115AQ  24171.02465494  .00001926  00000-0  13904-3 0  9995,2 49762  53.2178  81.3068 0001567 100.9620 259.1548 15.08842989141889,6917.871,95.437,540.82,538.652,0.0
49762.0,STARLINK-3195,PAYLOAD,2024-06-19 22:50:53,15.08849708,0.0001689,53.2183,77.142,108.9839,251.1336,-4.4902e-05,-1.003e-05,0.0,0 STARLINK-3195,1 49762U 21115AQ  24171.95201096 -.00001003  00000-0 -44902-4 0  9994,2 49762  53.2183  77.1420 0001689 108.9839 251.1336 15.08849708140911,6917.851,95.437,540.884,538.547,0.0
49762.0,STARLINK-3195,PAYLOAD,2024-06-20 22:41:40,15.08840708,0.0001672,53.2184,72.6853,99.4009,260.7173,-1.3219e-05,-4.98e-06,0.0,0 STARLINK-3195,1 49762U 21115AQ  24172.94561295 -.00000498  00000-0 -13219-4 0  9998,2 49762  53.2184  72.6853 0001672  99.4009 260.7173 15.08840708142173,6917.878,95.438,540.9,538.587,0.0
49762.0,STARLINK-3195,PAYLOAD,2024-06-21 00:17:04,15.08841797,0.0001618,53.2181,72.3907,89.52,270.5977,7.431e-06,-1.7e-06,0.0,0 STARLINK-3195,1 49762U 21115AQ  24173.01185222 -.00000170  00000-0  74310-5 0  9995,2 49762  53.2181  72.3907 0001618  89.5200 270.5977 15.08841797141078,6917.875,95.437,540.859,538.621,0.0
